STARLINK-2126
1 27726C 21017E   21325.13993645  .00003633  00000-0  24332-3 0  3255
2 27726  53.0560  47.5966 0001350  66.7853 171.3031 15.06406225    16
